ONEWEB-0012             
1 44057U 19010A   25003.47835590 -.00000102  00000+0 -30147-3 0  9994
2 44057  87.9108 334.3442 0000987  77.9129 282.2112 13.16597339281867
ONEWEB-0010             
1 44058U 19010B   25003.65568376  .00000108  00000+0  25021-3 0  9999
2 44058  87.9104 334.2909 0001527  99.5047 260.6257 13.16597018281933
ONEWEB-0008             
1 44059U 19010C   25003.90902426  .00000183  00000+0  44565-3 0  9993
2 44059  87.9104 334.2418 0002016  81.3625 278.7734 13.16596615282083
ONEWEB-0007             
1 44060U 19010D   25003.98002987  .00000136  00000+0  32812-3 0  9996
2 44060  87.9070   4.5807 0001367  89.0095 271.1192 13.15547330281791
ONEWEB-0006             
1 44061U 19010E   25003.75581950  .00000208  00000+0  51933-3 0  9999
2 44061  87.9062   4.5900 0001517  95.2732 264.8572 13.15546976281810
ONEWEB-0011             
1 44062U 19010F   25004.02994176 -.00000131  00000+0 -38244-3 0  9996
2 44062  87.9067   4.5397 0001907  97.3188 262.8159 13.15551152281874
ONEWEB-0013             
1 45131U 20008A   25003.86266307  .00000348  00000+0  97292-3 0  9998
2 45131  87.8640 159.4681 0001284  55.5732 304.5516 13.09411528236790
ONEWEB-0017             
1 45132U 20008B   25003.76589742  .00000263  00000+0  71751-3 0  9997
2 45132  87.8904 141.7398 0001564 112.8110 247.3183 13.10370139238612
